{"type": "FeatureCollection", "features": [ {"type": "Feature", "properties": {"norad_id": 35239, "name": "FENGYUN 1C DEB", "group": "fengyun-1c-debris", "lat": 8.13836693908577, "lon": -30.764844586876066, "alt_km": 1165.4840677897446, "timestamp": "2025-12-13T05:42:57.847810+00:00", "meta": {"OBJECT_NAME": "FENGYUN 1C DEB", "OBJECT_ID": "1999-025DQX", "EPOCH": "2025-12-11T09:02:36.536928", "MEAN_MOTION": 13.69211906, "ECCENTRICITY": 0.02296897, "INCLINATION": 99.2659, "RA_OF_ASC_NODE": 146.1065, "ARG_OF_PERICENTER": 13.9331, "MEAN_ANOMALY": 346.8014, "EPHEMERIS_TYPE": 0, "CLASSIFICATION_TYPE": "U", "NORAD_CAT_ID": 35239, "ELEMENT_SET_NO": 999, "REV_AT_EPOCH": 58112, "BSTAR": 0.001325836, "MEAN_MOTION_DOT": 1.34e-05, "MEAN_MOTION_DDOT": 0}, "tle": {"line1": "1 35239U 99025DQX 25345.37681177  .00001340  00000+0  13258-2 0  9994", "line2": "2 35239  99.2659 146.1065 0229689  13.9331 346.8014 13.69211906581124"}}, "geometry": {"type": "Point", "coordinates": [-30.764844586876066, 8.13836693908577]}}, {"type": "Feature", "properties": {"norad_id": 35240, "name": "FENGYUN 1C DEB", "group": "fengyun-1c-debris", "lat": 77.70675431011432, "lon": 178.83286482338838, "alt_km": 786.5291546250592, "timestamp": "2025-12-13T05:42:57.847821+00:00", "meta": {"OBJECT_NAME": "FENGYUN 1C DEB", "OBJECT_ID": "1999-025DQY", "EPOCH": "2025-12-10T19:53:33.388224", "MEAN_MOTION": 14.23273477, "ECCENTRICITY": 0.00460429, "INCLINATION": 99.3521, "RA_OF_ASC_NODE": 307.1402, "ARG_OF_PERICENTER": 157.1432, "MEAN_ANOMALY": 203.1807, "EPHEMERIS_TYPE": 0, "CLASSIFICATION_TYPE": "U", "NORAD_CAT_ID": 35240, "ELEMENT_SET_NO": 999, "REV_AT_EPOCH": 93137, "BSTAR": 0.0028626326, "MEAN_MOTION_DOT": 6.509e-05, "MEAN_MOTION_DDOT": 0}, "tle": {"line1": "1 35240U 99025DQY 25344.82885866  .00006509  00000+0  28626-2 0  9993", "line2": "2 35240  99.3521 307.1402 0046042 157.1432 203.1807 14.23273477931375"}}, "geometry": {"type": "Point", "coordinates": [178.83286482338838, 77.70675431011432]}}, {"type": "Feature", "properties": {"norad_id": 35241, "name": "FENGYUN 1C DEB", "group": "fengyun-1c-debris", "lat": 3.1411840161308175, "lon": -84.20555195653411, "alt_km": 979.2722763710308, "timestamp": "2025-12-13T05:42:57.847831+00:00", "meta": {"OBJECT_NAME": "FENGYUN 1C DEB", "OBJECT_ID": "1999-025DQZ", "EPOCH": "2025-12-11T05:44:22.817472", "MEAN_MOTION": 14.01929609, "ECCENTRICITY": 0.0135502, "INCLINATION": 98.631, "RA_OF_ASC_NODE": 274.3792, "ARG_OF_PERICENTER": 212.8639, "MEAN_ANOMALY": 146.4048, "EPHEMERIS_TYPE": 0, "CLASSIFICATION_TYPE": "U", "NORAD_CAT_ID": 35241, "ELEMENT_SET_NO": 999, "REV_AT_EPOCH": 87585, "BSTAR": 0.002553102, "MEAN_MOTION_DOT": 4.174e-05, "MEAN_MOTION_DDOT": 0}, "tle": {"line1": "1 35241U 99025DQZ 25345.23915298  .00004174  00000+0  25531-2 0  9991", "line2": "2 35241  98.6310 274.3792 0135502 212.8639 146.4048 14.01929609875856"}}, "geometry": {"type": "Point", "coordinates": [-84.20555195653411, 3.1411840161308175]}}, {"type": "Feature", "properties": {"norad_id": 35242, "name": "FENGYUN 1C DEB", "group": "fengyun-1c-debris", "lat": 4.728979207181487, "lon": 38.95276883719608, "alt_km": 1290.1547941756053, "timestamp": "2025-12-13T05:42:57.847842+00:00", "meta": {"OBJECT_NAME": "FENGYUN 1C DEB", "OBJECT_ID": "1999-025DRA", "EPOCH": "2025-12-09T15:26:53.963232", "MEAN_MOTION": 13.52332883, "ECCENTRICITY": 0.0301834, "INCLINATION": 99.9692, "RA_OF_ASC_NODE": 36.171, "ARG_OF_PERICENTER": 196.4444, "MEAN_ANOMALY": 317.6855, "EPHEMERIS_TYPE": 0, "CLASSIFICATION_TYPE": "U", "NORAD_CAT_ID": 35242, "ELEMENT_SET_NO": 999, "REV_AT_EPOCH": 58085, "BSTAR": 0.0024719, "MEAN_MOTION_DOT": 2.128e-05, "MEAN_MOTION_DDOT": 0}, "tle": {"line1": "1 35242U 99025DRA 25343.64368013  .00002128  00000+0  24719-2 0  9996", "line2": "2 35242  99.9692  36.1710 0301834 196.4444 317.6855 13.52332883580850"}}, "geometry": {"type": "Point", "coordinates": [38.95276883719608, 4.728979207181487]}}, {"type": "Feature", "properties": {"norad_id": 35243, "name": "FENGYUN 1C DEB", "group": "fengyun-1c-debris", "lat": -61.293841872483526, "lon": 82.75987886742415, "alt_km": 580.1976019219219, "timestamp": "2025-12-13T05:42:57.847853+00:00", "meta": {"OBJECT_NAME": "FENGYUN 1C DEB", "OBJECT_ID": "1999-025DRB", "EPOCH": "2025-12-12T04:09:22.534272", "MEAN_MOTION": 14.86931741, "ECCENTRICITY": 0.00658344, "INCLINATION": 98.8804, "RA_OF_ASC_NODE": 64.981, "ARG_OF_PERICENTER": 258.8015, "MEAN_ANOMALY": 100.5793, "EPHEMERIS_TYPE": 0, "CLASSIFICATION_TYPE": "U", "NORAD_CAT_ID": 35243, "ELEMENT_SET_NO": 999, "REV_AT_EPOCH": 90992, "BSTAR": 0.0034254016, "MEAN_MOTION_DOT": 0.00031923, "MEAN_MOTION_DDOT": 0}, "tle": {"line1": "1 35243U 99025DRB 25346.17317748  .00031923  00000+0  34254-2 0  9997", "line2": "2 35243  98.8804  64.9810 0065834 258.8015 100.5793 14.86931741909927"}}, "geometry": {"type": "Point", "coordinates": [82.75987886742415, -61.293841872483526]}}, {"type": "Feature", "properties": {"norad_id": 35244, "name": "FENGYUN 1C DEB", "group": "fengyun-1c-debris", "lat": 43.276078385805874, "lon": -144.12855481724412, "alt_km": 818.1988894100905, "timestamp": "2025-12-13T05:42:57.847863+00:00", "meta": {"OBJECT_NAME": "FENGYUN 1C DEB", "OBJECT_ID": "1999-025DRC", "EPOCH": "2025-12-11T01:51:24.854400", "MEAN_MOTION": 14.06623118, "ECCENTRICITY": 0.00719387, "INCLINATION": 98.8406, "RA_OF_ASC_NODE": 25.334, "ARG_OF_PERICENTER": 161.9905, "MEAN_ANOMALY": 198.3837, "EPHEMERIS_TYPE": 0, "CLASSIFICATION_TYPE": "U", "NORAD_CAT_ID": 35244, "ELEMENT_SET_NO": 999, "REV_AT_EPOCH": 65798, "BSTAR": 0.0006285651, "MEAN_MOTION_DOT": 1.024e-05, "MEAN_MOTION_DDOT": 0}, "tle": {"line1": "1 35244U 99025DRC 25345.07737100  .00001024  00000+0  62857-3 0  9994", "line2": "2 35244  98.8406  25.3340 0071938 161.9905 198.3837 14.06623118657987"}}, "geometry": {"type": "Point", "coordinates": [-144.12855481724412, 43.276078385805874]}}, {"type": "Feature", "properties": {"norad_id": 35245, "name": "FENGYUN 1C DEB", "group": "fengyun-1c-debris", "lat": 43.968889774253114, "lon": 63.885740324356355, "alt_km": 875.4123687567399, "timestamp": "2025-12-13T05:42:57.847874+00:00", "meta": {"OBJECT_NAME": "FENGYUN 1C DEB", "OBJECT_ID": "1999-025DRD", "EPOCH": "2025-12-11T11:18:58.055328", "MEAN_MOTION": 14.13077902, "ECCENTRICITY": 0.0058998, "INCLINATION": 99.0839, "RA_OF_ASC_NODE": 70.9715, "ARG_OF_PERICENTER": 274.0194, "MEAN_ANOMALY": 148.0022, "EPHEMERIS_TYPE": 0, "CLASSIFICATION_TYPE": "U", "NORAD_CAT_ID": 35245, "ELEMENT_SET_NO": 999, "REV_AT_EPOCH": 87759, "BSTAR": 0.0032686683, "MEAN_MOTION_DOT": 6.164e-05, "MEAN_MOTION_DDOT": 0}, "tle": {"line1": "1 35245U 99025DRD 25345.47150527  .00006164  00000+0  32687-2 0  9998", "line2": "2 35245  99.0839  70.9715 0058998 274.0194 148.0022 14.13077902877591"}}, "geometry": {"type": "Point", "coordinates": [63.885740324356355, 43.968889774253114]}}, {"type": "Feature", "properties": {"norad_id": 36147, "name": "FENGYUN 1C DEB", "group": "fengyun-1c-debris", "lat": -32.15989512722968, "lon": 60.818374547399834, "alt_km": 944.5842172928997, "timestamp": "2025-12-13T05:42:57.847884+00:00", "meta": {"OBJECT_NAME": "FENGYUN 1C DEB", "OBJECT_ID": "1999-025DRU", "EPOCH": "2025-12-06T11:35:31.438464", "MEAN_MOTION": 13.46487115, "ECCENTRICITY": 0.04411963, "INCLINATION": 98.5268, "RA_OF_ASC_NODE": 49.6332, "ARG_OF_PERICENTER": 279.0005, "MEAN_ANOMALY": 76.1459, "EPHEMERIS_TYPE": 0, "CLASSIFICATION_TYPE": "U", "NORAD_CAT_ID": 36147, "ELEMENT_SET_NO": 999, "REV_AT_EPOCH": 59913, "BSTAR": 0.0028331014, "MEAN_MOTION_DOT": 3.048e-05, "MEAN_MOTION_DDOT": 0}, "tle": {"line1": "1 36147U 99025DRU 25340.48300276  .00003048  00000+0  28331-2 0  9993", "line2": "2 36147  98.5268  49.6332 0441196 279.0005  76.1459 13.46487115599135"}}, "geometry": {"type": "Point", "coordinates": [60.818374547399834, -32.15989512722968]}}, {"type": "Feature", "properties": {"norad_id": 36148, "name": "FENGYUN 1C DEB", "group": "fengyun-1c-debris", "lat": -16.392287004657558, "lon": -159.51065871185216, "alt_km": 742.8988366428284, "timestamp": "2025-12-13T05:42:57.847895+00:00", "meta": {"OBJECT_NAME": "FENGYUN 1C DEB", "OBJECT_ID": "1999-025DRV", "EPOCH": "2025-12-08T20:01:34.158432", "MEAN_MOTION": 13.84882302, "ECCENTRICITY": 0.02852918, "INCLINATION": 98.4223, "RA_OF_ASC_NODE": 194.031, "ARG_OF_PERICENTER": 0.3164, "MEAN_ANOMALY": 359.8126, "EPHEMERIS_TYPE": 0, "CLASSIFICATION_TYPE": "U", "NORAD_CAT_ID": 36148, "ELEMENT_SET_NO": 999, "REV_AT_EPOCH": 90190, "BSTAR": 0.0050243955, "MEAN_MOTION_DOT": 7.751e-05, "MEAN_MOTION_DDOT": 0}, "tle": {"line1": "1 36148U 99025DRV 25342.83442313  .00007751  00000+0  50244-2 0  9997", "line2": "2 36148  98.4223 194.0310 0285291   0.3164 359.8126 13.84882302901903"}}, "geometry": {"type": "Point", "coordinates": [-159.51065871185216, -16.392287004657558]}}, {"type": "Feature", "properties": {"norad_id": 36152, "name": "FENGYUN 1C DEB", "group": "fengyun-1c-debris", "lat": -32.16614681301271, "lon": -158.53363282543333, "alt_km": 800.6558072284633, "timestamp": "2025-12-13T05:42:57.847906+00:00", "meta": {"OBJECT_NAME": "FENGYUN 1C DEB", "OBJECT_ID": "1999-025DRZ", "EPOCH": "2025-12-05T08:38:09.614400", "MEAN_MOTION": 14.17194433, "ECCENTRICITY": 0.00555046, "INCLINATION": 98.7557, "RA_OF_ASC_NODE": 19.2702, "ARG_OF_PERICENTER": 233.3678, "MEAN_ANOMALY": 126.2385, "EPHEMERIS_TYPE": 0, "CLASSIFICATION_TYPE": "U", "NORAD_CAT_ID": 36152, "ELEMENT_SET_NO": 999, "REV_AT_EPOCH": 64052, "BSTAR": 0.0020553524, "MEAN_MOTION_DOT": 4.166e-05, "MEAN_MOTION_DDOT": 0}, "tle": {"line1": "1 36152U 99025DRZ 25339.35983350  .00004166  00000+0  20554-2 0  9994", "line2": "2 36152  98.7557  19.2702 0055504 233.3678 126.2385 14.17194433640523"}}, "geometry": {"type": "Point", "coordinates": [-158.53363282543333, -32.16614681301271]}}]}